{"type": "FeatureCollection", "features": [ {"type": "Feature", "properties": {"norad_id": 40938, "name": "BEIDOU-3S IGSO-2S (C56)", "group": "gnss", "lat": 48.98233051346117, "lon": 2.2179774839093693, "alt_km": 35785.95810725636, "timestamp": "2025-12-21T11:31:43.097435+00:00", "meta": {"OBJECT_NAME": "BEIDOU-3S IGSO-2S (C56)", "OBJECT_ID": "2015-053A", "EPOCH": "2025-12-20T17:06:26.975808", "MEAN_MOTION": 1.00268356, "ECCENTRICITY": 0.00605652, "INCLINATION": 49.4983, "RA_OF_ASC_NODE": 260.9119, "ARG_OF_PERICENTER": 188.6737, "MEAN_ANOMALY": 352.4367, "EPHEMERIS_TYPE": 0, "CLASSIFICATION_TYPE": "U", "NORAD_CAT_ID": 40938, "ELEMENT_SET_NO": 999, "REV_AT_EPOCH": 3756, "BSTAR": 0, "MEAN_MOTION_DOT": -1.06e-06, "MEAN_MOTION_DDOT": 0}, "tle": {"line1": "1 40938U 15053A   25354.71281222 -.00000106  00000+0  00000+0 0  9998", "line2": "2 40938  49.4983 260.9119 0060565 188.6737 352.4367  1.00268356 37565"}}, "geometry": {"type": "Point", "coordinates": [2.2179774839093693, 48.98233051346117]}}, {"type": "Feature", "properties": {"norad_id": 41019, "name": "GPS BIIF-11 (PRN 10)", "group": "gnss", "lat": 33.81500960851296, "lon": -168.2729280699077, "alt_km": 20184.38039455904, "timestamp": "2025-12-21T11:31:43.097447+00:00", "meta": {"OBJECT_NAME": "GPS BIIF-11 (PRN 10)", "OBJECT_ID": "2015-062A", "EPOCH": "2025-12-20T06:55:31.863072", "MEAN_MOTION": 2.00567218, "ECCENTRICITY": 0.0111019, "INCLINATION": 56.8376, "RA_OF_ASC_NODE": 37.7103, "ARG_OF_PERICENTER": 230.1421, "MEAN_ANOMALY": 128.9419, "EPHEMERIS_TYPE": 0, "CLASSIFICATION_TYPE": "U", "NORAD_CAT_ID": 41019, "ELEMENT_SET_NO": 999, "REV_AT_EPOCH": 7424, "BSTAR": 0, "MEAN_MOTION_DOT": -5.7e-07, "MEAN_MOTION_DDOT": 0}, "tle": {"line1": "1 41019U 15062A   25354.28856323 -.00000057  00000+0  00000+0 0  9996", "line2": "2 41019  56.8376  37.7103 0111019 230.1421 128.9419  2.00567218 74241"}}, "geometry": {"type": "Point", "coordinates": [-168.2729280699077, 33.81500960851296]}}, {"type": "Feature", "properties": {"norad_id": 41028, "name": "GSAT-15 (GAGAN/PRN 139)", "group": "gnss", "lat": 0.018623011231749295, "lon": -3.250629348981871, "alt_km": 35790.791748779164, "timestamp": "2025-12-21T11:31:43.097461+00:00", "meta": {"OBJECT_NAME": "GSAT-15 (GAGAN/PRN 139)", "OBJECT_ID": "2015-065A", "EPOCH": "2025-12-21T03:22:13.126944", "MEAN_MOTION": 1.00273057, "ECCENTRICITY": 0.0002346, "INCLINATION": 0.0283, "RA_OF_ASC_NODE": 272.1219, "ARG_OF_PERICENTER": 323.8032, "MEAN_ANOMALY": 358.0981, "EPHEMERIS_TYPE": 0, "CLASSIFICATION_TYPE": "U", "NORAD_CAT_ID": 41028, "ELEMENT_SET_NO": 999, "REV_AT_EPOCH": 3701, "BSTAR": 0, "MEAN_MOTION_DOT": -2.35e-06, "MEAN_MOTION_DDOT": 0}, "tle": {"line1": "1 41028U 15065A   25355.14042971 -.00000235  00000+0  00000+0 0  9999", "line2": "2 41028   0.0283 272.1219 0002346 323.8032 358.0981  1.00273057 37010"}}, "geometry": {"type": "Point", "coordinates": [-3.250629348981871, 0.018623011231749295]}}, {"type": "Feature", "properties": {"norad_id": 41174, "name": "GSAT0209 (GALILEO 12)", "group": "gnss", "lat": 51.67020830484657, "lon": -133.3554710528839, "alt_km": 23219.87413170232, "timestamp": "2025-12-21T11:31:43.097475+00:00", "meta": {"OBJECT_NAME": "GSAT0209 (GALILEO 12)", "OBJECT_ID": "2015-079A", "EPOCH": "2025-12-20T17:12:54.927360", "MEAN_MOTION": 1.70474584, "ECCENTRICITY": 0.00024263, "INCLINATION": 55.7172, "RA_OF_ASC_NODE": 106.1622, "ARG_OF_PERICENTER": 346.435, "MEAN_ANOMALY": 13.5264, "EPHEMERIS_TYPE": 0, "CLASSIFICATION_TYPE": "U", "NORAD_CAT_ID": 41174, "ELEMENT_SET_NO": 999, "REV_AT_EPOCH": 6173, "BSTAR": 0, "MEAN_MOTION_DOT": 0, "MEAN_MOTION_DDOT": 0}, "tle": {"line1": "1 41174U 15079A   25354.71730240  .00000000  00000+0  00000+0 0  9990", "line2": "2 41174  55.7172 106.1622 0002426 346.4350  13.5264  1.70474584 61731"}}, "geometry": {"type": "Point", "coordinates": [-133.3554710528839, 51.67020830484657]}}, {"type": "Feature", "properties": {"norad_id": 41175, "name": "GSAT0208 (GALILEO 11)", "group": "gnss", "lat": -21.899654539505566, "lon": 90.24211761640106, "alt_km": 23220.28675941243, "timestamp": "2025-12-21T11:31:43.097486+00:00", "meta": {"OBJECT_NAME": "GSAT0208 (GALILEO 11)", "OBJECT_ID": "2015-079B", "EPOCH": "2025-12-20T08:25:16.296384", "MEAN_MOTION": 1.70474393, "ECCENTRICITY": 0.00018076, "INCLINATION": 55.7157, "RA_OF_ASC_NODE": 106.1693, "ARG_OF_PERICENTER": 359.1842, "MEAN_ANOMALY": 0.7815, "EPHEMERIS_TYPE": 0, "CLASSIFICATION_TYPE": "U", "NORAD_CAT_ID": 41175, "ELEMENT_SET_NO": 999, "REV_AT_EPOCH": 6214, "BSTAR": 0, "MEAN_MOTION_DOT": -2e-08, "MEAN_MOTION_DDOT": 0}, "tle": {"line1": "1 41175U 15079B   25354.35088306 -.00000002  00000+0  00000+0 0  9993", "line2": "2 41175  55.7157 106.1693 0001807 359.1842   0.7815  1.70474393 62146"}}, "geometry": {"type": "Point", "coordinates": [90.24211761640106, -21.899654539505566]}}, {"type": "Feature", "properties": {"norad_id": 41241, "name": "IRNSS-1E", "group": "gnss", "lat": -23.46275597951583, "lon": 20.159962324387397, "alt_km": 35840.69793171545, "timestamp": "2025-12-21T11:31:43.097498+00:00", "meta": {"OBJECT_NAME": "IRNSS-1E", "OBJECT_ID": "2016-003A", "EPOCH": "2025-12-20T14:57:09.230400", "MEAN_MOTION": 1.00270447, "ECCENTRICITY": 0.0021619, "INCLINATION": 32.8427, "RA_OF_ASC_NODE": 62.3382, "ARG_OF_PERICENTER": 188.6599, "MEAN_ANOMALY": 174.4859, "EPHEMERIS_TYPE": 0, "CLASSIFICATION_TYPE": "U", "NORAD_CAT_ID": 41241, "ELEMENT_SET_NO": 999, "REV_AT_EPOCH": 3629, "BSTAR": 0, "MEAN_MOTION_DOT": -3e-06, "MEAN_MOTION_DDOT": 0}, "tle": {"line1": "1 41241U 16003A   25354.62302350 -.00000300  00000+0  00000+0 0  9994", "line2": "2 41241  32.8427  62.3382 0021619 188.6599 174.4859  1.00270447 36292"}}, "geometry": {"type": "Point", "coordinates": [20.159962324387397, -23.46275597951583]}}, {"type": "Feature", "properties": {"norad_id": 41328, "name": "GPS BIIF-12 (PRN 32)", "group": "gnss", "lat": 54.08865231225056, "lon": 168.57809375588837, "alt_km": 20412.23276220695, "timestamp": "2025-12-21T11:31:43.097510+00:00", "meta": {"OBJECT_NAME": "GPS BIIF-12 (PRN 32)", "OBJECT_ID": "2016-007A", "EPOCH": "2025-12-20T08:54:35.720928", "MEAN_MOTION": 2.00560411, "ECCENTRICITY": 0.00925423, "INCLINATION": 55.4103, "RA_OF_ASC_NODE": 96.5541, "ARG_OF_PERICENTER": 243.7653, "MEAN_ANOMALY": 115.2741, "EPHEMERIS_TYPE": 0, "CLASSIFICATION_TYPE": "U", "NORAD_CAT_ID": 41328, "ELEMENT_SET_NO": 999, "REV_AT_EPOCH": 7225, "BSTAR": 0, "MEAN_MOTION_DOT": -1.8e-07, "MEAN_MOTION_DDOT": 0}, "tle": {"line1": "1 41328U 16007A   25354.37124677 -.00000018  00000+0  00000+0 0  9996", "line2": "2 41328  55.4103  96.5541 0092542 243.7653 115.2741  2.00560411 72256"}}, "geometry": {"type": "Point", "coordinates": [168.57809375588837, 54.08865231225056]}}, {"type": "Feature", "properties": {"norad_id": 41330, "name": "COSMOS 2514 (751)", "group": "gnss", "lat": 30.801892887532574, "lon": -24.868845629252963, "alt_km": 19156.09883760775, "timestamp": "2025-12-21T11:31:43.097522+00:00", "meta": {"OBJECT_NAME": "COSMOS 2514 (751)", "OBJECT_ID": "2016-008A", "EPOCH": "2025-12-20T23:11:21.346656", "MEAN_MOTION": 2.13102678, "ECCENTRICITY": 0.0011747, "INCLINATION": 65.1291, "RA_OF_ASC_NODE": 319.1224, "ARG_OF_PERICENTER": 220.1373, "MEAN_ANOMALY": 139.7688, "EPHEMERIS_TYPE": 0, "CLASSIFICATION_TYPE": "U", "NORAD_CAT_ID": 41330, "ELEMENT_SET_NO": 999, "REV_AT_EPOCH": 7682, "BSTAR": 0, "MEAN_MOTION_DOT": -4.9e-07, "MEAN_MOTION_DDOT": 0}, "tle": {"line1": "1 41330U 16008A   25354.96621929 -.00000049  00000+0  00000+0 0  9991", "line2": "2 41330  65.1291 319.1224 0011747 220.1373 139.7688  2.13102678 76822"}}, "geometry": {"type": "Point", "coordinates": [-24.868845629252963, 30.801892887532574]}}, {"type": "Feature", "properties": {"norad_id": 41384, "name": "IRNSS-1F", "group": "gnss", "lat": -1.2665896267382024, "lon": -64.31187503685778, "alt_km": 35691.321953279796, "timestamp": "2025-12-21T11:31:43.097534+00:00", "meta": {"OBJECT_NAME": "IRNSS-1F", "OBJECT_ID": "2016-015A", "EPOCH": "2025-12-20T23:39:22.115232", "MEAN_MOTION": 1.00276679, "ECCENTRICITY": 0.0022652, "INCLINATION": 4.9017, "RA_OF_ASC_NODE": 101.0932, "ARG_OF_PERICENTER": 181.7086, "MEAN_ANOMALY": 194.2944, "EPHEMERIS_TYPE": 0, "CLASSIFICATION_TYPE": "U", "NORAD_CAT_ID": 41384, "ELEMENT_SET_NO": 999, "REV_AT_EPOCH": 3588, "BSTAR": 0, "MEAN_MOTION_DOT": 1.78e-06, "MEAN_MOTION_DDOT": 0}, "tle": {"line1": "1 41384U 16015A   25354.98567263  .00000178  00000+0  00000+0 0  9992", "line2": "2 41384   4.9017 101.0932 0022652 181.7086 194.2944  1.00276679 35882"}}, "geometry": {"type": "Point", "coordinates": [-64.31187503685778, -1.2665896267382024]}}, {"type": "Feature", "properties": {"norad_id": 41434, "name": "BEIDOU-2 IGSO-6 (C13)", "group": "gnss", "lat": -35.81354779757999, "lon": 15.207243497105479, "alt_km": 35771.04769319627, "timestamp": "2025-12-21T11:31:43.097545+00:00", "meta": {"OBJECT_NAME": "BEIDOU-2 IGSO-6 (C13)", "OBJECT_ID": "2016-021A", "EPOCH": "2025-12-18T14:33:38.837664", "MEAN_MOTION": 1.00292299, "ECCENTRICITY": 0.00610054, "INCLINATION": 59.9732, "RA_OF_ASC_NODE": 39.8392, "ARG_OF_PERICENTER": 230.2031, "MEAN_ANOMALY": 129.1398, "EPHEMERIS_TYPE": 0, "CLASSIFICATION_TYPE": "U", "NORAD_CAT_ID": 41434, "ELEMENT_SET_NO": 999, "REV_AT_EPOCH": 3566, "BSTAR": 0, "MEAN_MOTION_DOT": -1.41e-06, "MEAN_MOTION_DDOT": 0}, "tle": {"line1": "1 41434U 16021A   25352.60669951 -.00000141  00000+0  00000+0 0  9990", "line2": "2 41434  59.9732  39.8392 0061005 230.2031 129.1398  1.00292299 35667"}}, "geometry": {"type": "Point", "coordinates": [15.207243497105479, -35.81354779757999]}}]}